{
"type": "FeatureCollection",
"name": "risk_significance_contour",
"crs": { "type": "name", "properties": { "name": "urn:ogc:def:crs:ESRI::54009" } },
"features": [
{ "type": "Feature", "properties": { "level": 0.05 }, "geometry": { "type": "MultiLineString", "coordinates": [ [ [ 820359.375, 1479530.179057156667113 ], [ 820890.625, 1479752.260438451776281 ], [ 821421.875, 1479574.154953219229355 ], [ 821953.125, 1479561.403464920818806 ], [ 822484.375, 1479604.852907878579572 ], [ 823015.625, 1479883.479478219756857 ], [ 823369.708332988782786, 1480128.90625 ], [ 823546.875, 1480156.229326160857454 ], [ 824078.125, 1480181.788933948380873 ], [ 824609.375, 1480692.569559786934406 ], [ 824660.340149877476506, 1480780.46875 ], [ 825140.625, 1481270.792379667749628 ], [ 825276.677686031558551, 1481432.03125 ], [ 825577.297144140233286, 1482083.59375 ], [ 825671.875, 1482351.29928416875191 ], [ 826203.125, 1482273.876710622804239 ], [ 826321.219091780250892, 1482083.59375 ], [ 826734.375, 1481522.415962579194456 ], [ 826756.824384132749401, 1481432.03125 ], [ 827265.625, 1480881.872906322125345 ], [ 827332.497340251109563, 1480780.46875 ], [ 827541.167401801678352, 1480128.90625 ], [ 827796.875, 1479695.265993033535779 ], [ 828233.461805984028615, 1479477.34375 ], [ 827796.875, 1479327.902028989745304 ], [ 827265.625, 1479079.560553760034963 ], [ 827086.149670333834365, 1478825.78125 ], [ 827265.625, 1478546.290400195866823 ], [ 827428.419660848216154, 1478174.21875 ], [ 827265.625, 1477842.601828852202743 ], [ 826734.375, 1477558.600949290441349 ], [ 826203.125, 1478006.793902582954615 ], [ 826140.485389072913677, 1478174.21875 ], [ 825671.875, 1478617.730323747731745 ], [ 825140.625, 1478607.777376058511436 ], [ 824609.375, 1478798.761595242889598 ], [ 824533.322358567384072, 1478825.78125 ], [ 824078.125, 1479095.993440281134099 ], [ 823546.875, 1479032.8759238072671 ], [ 823319.962538368185051, 1478825.78125 ], [ 823015.625, 1478275.485333895077929 ], [ 822946.379025809583254, 1478174.21875 ], [ 823015.625, 1478116.408850274281576 ], [ 823220.650974683347158, 1477522.65625 ], [ 823054.676552488235757, 1476871.09375 ], [ 823015.625, 1476849.450375557178631 ], [ 822584.94123097078409, 1476747.752225544536486 ] ], [ [ 821670.317842065589502, 1476871.09375 ], [ 821421.875, 1477015.535036939429119 ], [ 821293.851513590081595, 1477028.110790685052052 ] ], [ [ 821953.125, 1481953.225944379810244 ], [ 821863.963646322488785, 1482083.59375 ], [ 821953.125, 1482163.297157672001049 ], [ 821981.587913930648938, 1482083.59375 ], [ 821953.125, 1481953.225944379810244 ] ], [ [ 822484.375, 1491811.932831830810755 ], [ 822451.444606664357707, 1491857.03125 ], [ 822484.375, 1491925.833207310410216 ], [ 823015.625, 1492288.376176348654553 ], [ 823546.875, 1492416.305080211255699 ], [ 824078.125, 1491872.518488594563678 ], [ 824080.049836998456158, 1491857.03125 ], [ 824078.125, 1491853.948420773027465 ], [ 823622.499201952596195, 1491205.46875 ], [ 823546.875, 1491177.173605228541419 ], [ 823454.213572788867168, 1491205.46875 ], [ 823015.625, 1491781.445909139467403 ], [ 822484.375, 1491811.932831830810755 ] ], [ [ 824609.375, 1476838.866158859105781 ], [ 824383.573615065892227, 1476871.09375 ], [ 824286.878920016228221, 1477522.65625 ], [ 824609.375, 1477662.175927036209032 ], [ 825140.625, 1477815.39553429489024 ], [ 825530.69510563404765, 1477522.65625 ], [ 825163.094400073052384, 1476871.09375 ], [ 825140.625, 1476863.470420900965109 ], [ 824609.375, 1476838.866158859105781 ] ], [ [ 825140.625, 1483299.735501064686105 ], [ 824924.850155963329598, 1483386.71875 ], [ 825140.625, 1483566.045724184019491 ], [ 825202.963524915860035, 1483386.71875 ], [ 825140.625, 1483299.735501064686105 ] ], [ [ 826203.125, 1463890.110796698369086 ], [ 826734.375, 1463871.37787765590474 ], [ 827265.625, 1463872.290922506712377 ], [ 827796.875, 1464443.851492230547592 ], [ 828167.217750303330831, 1463839.84375 ], [ 827796.875, 1463615.424001923296601 ], [ 827296.436903144116513, 1463188.28125 ], [ 827265.625, 1463146.920579819474369 ], [ 826944.31352833553683, 1462536.71875 ] ], [ [ 826616.452559068566188, 1482735.15625 ], [ 826734.375, 1482627.610580592881888 ], [ 827265.625, 1482717.348381137475371 ], [ 827278.984038038295694, 1482735.15625 ], [ 827265.625, 1482786.940480660414323 ], [ 826734.375, 1482841.940539907896891 ], [ 826616.452559068566188, 1482735.15625 ] ], [ [ 827265.625, 1487559.857938929693773 ], [ 827031.610006320290267, 1487947.65625 ], [ 827265.625, 1488160.131536024156958 ], [ 827796.875, 1488223.985238946741447 ], [ 827856.521902992622927, 1487947.65625 ], [ 827796.875, 1487787.754575382219627 ], [ 827265.625, 1487559.857938929693773 ] ], [ [ 827796.875, 1464536.417156947543845 ], [ 827578.513761706999503, 1465142.96875 ], [ 827796.875, 1465363.051509395707399 ], [ 828181.952892445842735, 1465142.96875 ], [ 827796.875, 1464536.417156947543845 ] ], [ [ 829064.686155308852904, 1461885.15625 ], [ 829364.09755832166411, 1462536.71875 ], [ 829390.625, 1462598.061335856560618 ], [ 829888.303520304500125, 1463188.28125 ], [ 829921.875, 1463219.631503468146548 ], [ 830255.563344892580062, 1463188.28125 ], [ 830453.125, 1463114.923353599617258 ], [ 830636.313649961142801, 1462536.71875 ], [ 830923.182238986250013, 1461885.15625 ], [ 830866.024900705204345, 1461233.59375 ], [ 830453.125, 1461191.727823074208573 ], [ 829935.889358547283337, 1461233.59375 ], [ 829921.875, 1461243.797502521192655 ], [ 829910.005125200375915, 1461248.151802327716723 ] ], [ [ 829390.625, 1486409.264839535346255 ], [ 829201.223632684675977, 1486644.53125 ], [ 829390.625, 1486752.866257523419335 ], [ 829921.875, 1486873.991367008769885 ], [ 830105.400853529572487, 1486644.53125 ], [ 829921.875, 1486420.111942830029875 ], [ 829390.625, 1486409.264839535346255 ] ], [ [ 829390.625, 1490547.422504266258329 ], [ 829381.855109964148141, 1490553.90625 ], [ 829390.625, 1490558.387114443816245 ], [ 829921.875, 1490758.79370448901318 ], [ 830453.125, 1490790.345109258545563 ], [ 830984.375, 1490822.452586490893736 ], [ 831438.894459795672446, 1491205.46875 ], [ 831515.625, 1491278.430299867410213 ], [ 832046.875, 1491852.271711221663281 ], [ 832081.033545949729159, 1491857.03125 ], [ 832578.125, 1491884.845550859114155 ], [ 833109.375, 1491956.447127821156755 ], [ 833640.625, 1491963.215688680065796 ], [ 834171.875, 1492461.447644605999812 ], [ 834216.726428804919124, 1492508.59375 ], [ 834703.125, 1492888.646418611053377 ], [ 835234.375, 1492903.54881142033264 ], [ 835765.625, 1492904.174766016658396 ], [ 835922.552127318340354, 1492508.59375 ], [ 835785.309149656328373, 1491857.03125 ], [ 835801.879085622611456, 1491205.46875 ], [ 835906.483559560379945, 1490553.90625 ], [ 836296.875, 1489997.204574180301279 ], [ 836484.428017297992483, 1489902.34375 ], [ 836828.125, 1489380.961324416799471 ], [ 837239.756664071115665, 1489902.34375 ], [ 837359.375, 1489948.964379124576226 ], [ 837890.625, 1489921.571985959308222 ], [ 838239.193043965264224, 1489902.34375 ], [ 838210.65126319846604, 1489250.78125 ], [ 837993.956930751330219, 1488599.21875 ], [ 837890.625, 1488349.769431269727647 ], [ 837359.375, 1488036.067613126244396 ], [ 837226.884229930699803, 1487947.65625 ], [ 836828.125, 1487725.781916982261464 ], [ 836296.875, 1487334.090881990501657 ], [ 836237.384422766277567, 1487296.09375 ], [ 835765.625, 1487094.634974556276575 ], [ 835234.375, 1486708.471835635835305 ], [ 834712.431635970831849, 1487296.09375 ], [ 834703.125, 1487311.065030875150114 ], [ 834518.999428696581163, 1487947.65625 ], [ 834171.875, 1488276.288857894949615 ], [ 834138.86671883566305, 1488599.21875 ], [ 833640.625, 1489204.262351497542113 ], [ 833109.375, 1489061.016516558127478 ], [ 832735.920772882760502, 1488599.21875 ], [ 832967.319661799469031, 1487947.65625 ], [ 832578.125, 1487866.06768960878253 ], [ 832046.875, 1487758.67347365943715 ], [ 831522.993205315549858, 1487947.65625 ], [ 831515.625, 1487956.491717565571889 ], [ 830984.375, 1487949.578681685496122 ], [ 830982.850950119784102, 1487947.65625 ], [ 830453.125, 1487840.237541450653225 ], [ 830279.831400548806414, 1487947.65625 ], [ 829921.875, 1488404.87778457114473 ], [ 829851.784246855531819, 1488599.21875 ], [ 829921.875, 1488757.277138433186337 ], [ 830331.81069828371983, 1489250.78125 ], [ 830237.900120211183093, 1489902.34375 ], [ 829921.875, 1490204.102674321038648 ], [ 829390.625, 1490547.422504266258329 ] ], [ [ 829921.875, 1468358.568473542807624 ], [ 829876.775452778209001, 1468400.78125 ], [ 829921.875, 1468411.083150531398132 ], [ 829938.904339030850679, 1468400.78125 ], [ 829921.875, 1468358.568473542807624 ] ], [ [ 832046.875, 1461534.578907216666266 ], [ 831925.883359197177924, 1461885.15625 ], [ 831940.116602897760458, 1462536.71875 ], [ 832046.875, 1462826.975552364019677 ], [ 832384.012528183637187, 1463188.28125 ], [ 832578.125, 1463342.75202290690504 ], [ 833109.375, 1463210.813692704075947 ], [ 833189.925079922308214, 1463188.28125 ], [ 833640.625, 1462631.547364472644404 ], [ 834171.875, 1462560.447780702030286 ], [ 834664.987523641553707, 1462536.71875 ], [ 834171.875, 1462457.378578036557883 ], [ 833750.349159344914369, 1461885.15625 ], [ 833640.625, 1461732.681309253443033 ], [ 833109.375, 1461529.21046204213053 ], [ 832578.125, 1461453.382553512463346 ], [ 832046.875, 1461534.578907216666266 ] ], [ [ 832578.125, 1450522.495649322168902 ], [ 832336.244470130419359, 1450808.59375 ], [ 832350.874091053381562, 1451460.15625 ], [ 832068.210537047008984, 1452111.71875 ], [ 832578.125, 1452723.034761033486575 ], [ 832610.318731371313334, 1452763.28125 ], [ 833109.375, 1453406.636171091347933 ], [ 833116.237147213425487, 1453414.84375 ], [ 833137.383332644239999, 1454066.40625 ], [ 833638.229106103768572, 1454717.96875 ], [ 833640.625, 1454718.605960459681228 ], [ 834171.875, 1454719.325093811843544 ], [ 834181.000175626832061, 1454717.96875 ], [ 834380.395733507466502, 1454066.40625 ], [ 834652.994154413929209, 1453414.84375 ], [ 834684.52340350067243, 1452763.28125 ], [ 834703.125, 1452740.105245614191517 ], [ 834914.429653867846355, 1452111.71875 ], [ 834914.481635882635601, 1451460.15625 ], [ 834703.125, 1451183.103130016941577 ], [ 834395.280031753471121, 1450808.59375 ], [ 834171.875, 1450641.910740951774642 ], [ 833640.625, 1450540.233529124641791 ], [ 833109.375, 1450516.960838087834418 ], [ 832578.125, 1450522.495649322168902 ] ], [ [ 835234.375, 1461867.922188295749947 ], [ 835196.529873058898374, 1461885.15625 ], [ 835234.375, 1461918.947477085515857 ], [ 835247.167766618076712, 1461885.15625 ], [ 835234.375, 1461867.922188295749947 ] ], [ [ 836296.875, 1454562.159585898043588 ], [ 836095.758294056518935, 1454717.96875 ], [ 836086.411887284717523, 1455369.53125 ], [ 836296.875, 1455989.739544920390472 ], [ 836828.125, 1456006.042516128858551 ], [ 837359.375, 1455400.66550435195677 ], [ 837389.968605828122236, 1455369.53125 ], [ 837359.375, 1454791.601936758263037 ], [ 837353.864560473710299, 1454717.96875 ], [ 836828.125, 1454475.489574969746172 ], [ 836296.875, 1454562.159585898043588 ] ], [ [ 836296.875, 1456311.657666041282937 ], [ 836276.095885399612598, 1456672.65625 ], [ 836296.875, 1456700.66530603193678 ], [ 836317.424415088491514, 1456672.65625 ], [ 836296.875, 1456311.657666041282937 ] ], [ [ 837359.375, 1461233.408210397697985 ], [ 837358.650790453422815, 1461233.59375 ], [ 837359.375, 1461233.884069394785911 ], [ 837405.37037514266558, 1461233.59375 ], [ 837359.375, 1461233.408210397697985 ] ], [ [ 838412.309912043623626, 1490553.90625 ], [ 838421.875, 1490205.328131302725524 ], [ 838953.125, 1490091.729731919476762 ], [ 839484.375, 1490219.863577114185318 ], [ 840015.625, 1490337.684937732527032 ], [ 840185.909144847653806, 1490553.90625 ], [ 840199.769083501538262, 1491205.46875 ], [ 840015.625, 1491230.556997043313459 ], [ 839484.375, 1491265.38581452332437 ], [ 839019.997073734877631, 1491205.46875 ], [ 838953.125, 1491134.471964185126126 ], [ 838421.875, 1490582.881520024267957 ], [ 838412.309912043623626, 1490553.90625 ] ], [ [ 838953.125, 1457956.235586038557813 ], [ 838936.6641130882781, 1457975.78125 ], [ 838953.125, 1458028.429276082897559 ], [ 839429.015474416548386, 1458627.34375 ], [ 839484.375, 1458651.671968096634373 ], [ 840005.010294067673385, 1459278.90625 ], [ 839993.697555700549856, 1459930.46875 ], [ 840015.625, 1459956.420706948032603 ], [ 840546.875, 1459936.686772327870131 ], [ 841078.125, 1459943.587474273983389 ], [ 841603.246030207024887, 1460582.03125 ], [ 841609.375, 1460794.725534261669964 ], [ 841672.333185116527602, 1461233.59375 ], [ 842140.625, 1461739.916357893729582 ], [ 842270.101067693554796, 1461885.15625 ], [ 842671.875, 1462303.829890713328496 ], [ 843203.125, 1462320.366155183874071 ], [ 843398.640803074114956, 1462536.71875 ], [ 843203.125, 1462834.051333076087758 ], [ 842993.086480409489013, 1463188.28125 ], [ 843176.45649276743643, 1463839.84375 ], [ 843203.125, 1464234.811289865523577 ], [ 843734.375, 1464405.888760630041361 ], [ 843891.237768374499865, 1464491.40625 ], [ 844265.625, 1464669.063818541821092 ], [ 844796.875, 1464794.701493490487337 ], [ 845328.125, 1464859.107888927683234 ], [ 845859.375, 1465058.828879747772589 ], [ 845972.872410680633038, 1464491.40625 ], [ 846102.943260586936958, 1463839.84375 ], [ 845859.375, 1463480.45887515717186 ], [ 845653.812154008541256, 1463188.28125 ], [ 845751.75525097141508, 1462536.71875 ], [ 845834.477893002098426, 1461885.15625 ], [ 845859.375, 1461733.280301025137305 ], [ 846390.625, 1461254.192852521082386 ], [ 846442.209014790481888, 1461233.59375 ], [ 846473.630359384231269, 1460582.03125 ], [ 846390.625, 1460542.885957164922729 ], [ 846313.399387984653004, 1460582.03125 ], [ 845859.375, 1461178.8155106829945 ], [ 845328.125, 1461189.976681380532682 ], [ 844850.349745112820528, 1460582.03125 ], [ 844873.467344290693291, 1459930.46875 ], [ 845328.125, 1459421.205418087076396 ], [ 845383.02854670304805, 1459278.90625 ], [ 845328.125, 1459101.600248975912109 ], [ 844941.551269068848342, 1458627.34375 ], [ 844796.875, 1458559.945237268460914 ], [ 844662.608559025917202, 1458627.34375 ], [ 844265.625, 1459163.208660367177799 ], [ 844189.193278648308478, 1459278.90625 ], [ 844265.625, 1459372.127538826549426 ], [ 844724.581537531223148, 1459930.46875 ], [ 844265.625, 1460325.302143440116197 ], [ 843734.375, 1460331.410964405629784 ], [ 843412.708261367981322, 1459930.46875 ], [ 843203.125, 1459806.723157891305164 ], [ 842693.425520524033345, 1459278.90625 ], [ 842671.875, 1459249.316566723166034 ], [ 842257.926261286484078, 1458627.34375 ], [ 842380.879735946073197, 1457975.78125 ], [ 842158.357881068252027, 1457324.21875 ], [ 842140.625, 1457204.31749299261719 ], [ 841609.375, 1457222.527117491001263 ], [ 841181.316001367289573, 1456672.65625 ], [ 841078.125, 1456557.731247736839578 ], [ 840546.875, 1456631.28169554262422 ], [ 840015.625, 1456652.85320987761952 ], [ 839944.937672770698555, 1456672.65625 ], [ 839484.375, 1457283.613020705524832 ], [ 839473.1208999985829, 1457324.21875 ], [ 838953.125, 1457956.235586038557813 ] ], [ [ 842140.625, 1453982.21515368972905 ], [ 842117.448190373950638, 1454066.40625 ], [ 842140.625, 1454270.771066386019811 ], [ 842494.877188928658143, 1454717.96875 ], [ 842671.875, 1454908.285182664403692 ], [ 843203.125, 1454808.405804435955361 ], [ 843734.375, 1454819.095177436713129 ], [ 844265.625, 1454987.555984873324633 ], [ 844380.40876326628495, 1454717.96875 ], [ 844331.132570319343358, 1454066.40625 ], [ 844265.625, 1453896.598870081128553 ], [ 843958.553629198111594, 1453414.84375 ], [ 843811.345981605933048, 1452763.28125 ], [ 843817.348538286518306, 1452111.71875 ], [ 843925.352595352567732, 1451460.15625 ], [ 844238.460318967932835, 1450808.59375 ], [ 844265.625, 1450603.50212794309482 ], [ 844516.609439458930865, 1450808.59375 ], [ 844796.875, 1450819.271621796535328 ], [ 845328.125, 1450825.526916387025267 ], [ 845402.084985206252895, 1450808.59375 ], [ 845490.703716473071836, 1450157.03125 ], [ 845412.939494850928895, 1449505.46875 ], [ 845328.125, 1449216.669513213681057 ], [ 844796.875, 1449297.657712214160711 ], [ 844265.625, 1449453.147799256257713 ], [ 844192.216625437024049, 1449505.46875 ], [ 843734.375, 1450152.016637878958136 ], [ 843732.90096668235492, 1450157.03125 ], [ 843631.127391670481302, 1450808.59375 ], [ 843566.011857073754072, 1451460.15625 ], [ 843424.512091610697098, 1452111.71875 ], [ 843203.125, 1452403.755564598366618 ], [ 842945.273172312998213, 1452763.28125 ], [ 842671.875, 1452980.345461318036541 ], [ 842511.658578043454327, 1453414.84375 ], [ 842140.625, 1453982.21515368972905 ] ], [ [ 846069.89107393019367, 1465142.96875 ], [ 846390.625, 1465105.289078075205907 ], [ 846415.295327005092986, 1465142.96875 ], [ 846390.625, 1465256.959472408052534 ], [ 846069.89107393019367, 1465142.96875 ] ], [ [ 846921.875, 1448691.137085930677131 ], [ 846733.084620903246105, 1448853.90625 ], [ 846921.875, 1449408.724840602139011 ] ], [ [ 846921.875, 1450646.490361582953483 ], [ 846661.489272905397229, 1450808.59375 ], [ 846921.875, 1450874.203525229590014 ] ], [ [ 847984.375, 1458246.941495856270194 ], [ 847756.641754704876803, 1458627.34375 ], [ 847984.375, 1458900.279355050530285 ], [ 848238.01982508553192, 1458627.34375 ], [ 847984.375, 1458246.941495856270194 ] ], [ [ 847984.375, 1460406.143152770353481 ], [ 847875.588458188110963, 1460582.03125 ], [ 847984.375, 1460709.307256005471572 ], [ 848515.625, 1460723.541379458503798 ], [ 848943.258486093604006, 1461233.59375 ], [ 849046.875, 1461280.655272994656116 ], [ 849578.125, 1461525.724491728004068 ], [ 850013.462119920412078, 1461885.15625 ], [ 850109.375, 1461928.604639346478507 ], [ 850640.625, 1462011.746883791638538 ], [ 850784.200813216390088, 1461885.15625 ], [ 850963.960580670507625, 1461233.59375 ], [ 851171.875, 1460987.478813495254144 ], [ 851349.581126000848599, 1460582.03125 ], [ 851703.125, 1460089.786893567536026 ], [ 851872.246346819214523, 1459930.46875 ], [ 851758.664976465399377, 1459278.90625 ], [ 851704.022515875403769, 1458627.34375 ], [ 851703.125, 1458625.343766160542145 ], [ 851171.875, 1458380.305456182453781 ], [ 850640.625, 1458328.809531334787607 ], [ 850109.375, 1458343.33780605904758 ], [ 849673.699262510286644, 1458627.34375 ], [ 849578.125, 1458749.004515554988757 ], [ 849229.975124534685165, 1459278.90625 ], [ 849046.875, 1459635.395598906325176 ], [ 848515.625, 1459831.505769565468654 ], [ 848324.089793674414977, 1459930.46875 ], [ 847984.375, 1460406.143152770353481 ] ], [ [ 854375.81901207996998, 1459930.46875 ], [ 854359.375, 1459983.658844599034637 ], [ 853828.125, 1460194.325349509716034 ], [ 853296.875, 1460163.258043786976486 ], [ 852765.625, 1460146.783800797071308 ], [ 852585.001812912640162, 1459930.46875 ], [ 852709.32546708045993, 1459861.41902874270454 ] ], [ [ 855421.875, 1461205.345625705551356 ], [ 855342.374451843439601, 1461233.59375 ], [ 855421.875, 1461326.366635804995894 ], [ 855953.125, 1461381.786110011627898 ], [ 855982.507831398979761, 1461233.59375 ], [ 855953.125, 1461196.731316531542689 ], [ 855421.875, 1461205.345625705551356 ] ], [ [ 855953.125, 1463361.672121050069109 ], [ 855838.009549950715154, 1463839.84375 ], [ 855953.125, 1463973.78392134886235 ], [ 856083.548904411960393, 1463839.84375 ], [ 855953.125, 1463361.672121050069109 ] ], [ [ 857888.203991394257173, 1460582.03125 ], [ 857546.875, 1461033.31420284206979 ], [ 857489.116985305561684, 1461233.59375 ], [ 857546.875, 1461367.165212150663137 ], [ 857975.198782259365544, 1461885.15625 ], [ 858078.125, 1462006.301733202766627 ], [ 858517.885849785641767, 1462536.71875 ], [ 858609.375, 1462643.765596065903082 ], [ 858671.270596954505891, 1462536.71875 ], [ 859093.423608231940307, 1461885.15625 ], [ 859140.625, 1461830.28649576799944 ], [ 859671.875, 1461282.763669468928128 ], [ 860203.125, 1461271.519764176104218 ], [ 860244.138817211263813, 1461233.59375 ], [ 860203.125, 1461119.061342986067757 ], [ 859671.875, 1461204.340472366195172 ], [ 859140.625, 1460816.316453571431339 ], [ 858951.31826497730799, 1460582.03125 ] ], [ [ 858078.125, 1464953.60435552475974 ], [ 858020.332454462419264, 1465142.96875 ], [ 858078.125, 1465268.699898982886225 ], [ 858609.375, 1465580.315547666978091 ], [ 859140.625, 1465247.964428371749818 ], [ 859334.153431158047169, 1465142.96875 ], [ 859140.625, 1464885.730595213361084 ], [ 858609.375, 1464826.396732616936788 ], [ 858078.125, 1464953.60435552475974 ] ], [ [ 860203.125, 1462532.373697818256915 ], [ 860200.493590054102242, 1462536.71875 ], [ 859800.959703265572898, 1463188.28125 ], [ 860108.457596724038012, 1463839.84375 ], [ 860203.125, 1463948.590582894161344 ], [ 860659.923565016710199, 1464491.40625 ], [ 860629.901834375225008, 1465142.96875 ], [ 860734.375, 1465192.390232470817864 ], [ 861265.625, 1465203.400376283563673 ], [ 861463.951723728561774, 1465142.96875 ], [ 861644.851479988894425, 1464491.40625 ], [ 861781.905801439657807, 1463839.84375 ], [ 861796.875, 1463815.024347761645913 ], [ 862328.125, 1463353.944786175619811 ], [ 862398.005985092837363, 1463188.28125 ], [ 862328.125, 1463146.062216534977779 ], [ 861796.875, 1462989.529470327077433 ], [ 861317.717646117089316, 1462536.71875 ], [ 861265.625, 1462505.940475686453283 ], [ 860734.375, 1462447.034170866711065 ], [ 860203.125, 1462532.373697818256915 ] ] ] } }
]
}
